[{"OBJECT_NAME":"NINGXIA-1 4","OBJECT_ID":"2019-076D","EPOCH":"2026-03-09T22:43:42.811392","MEAN_MOTION":14.02017306,"ECCENTRICITY":0.00127515,"INCLINATION":45.0076,"RA_OF_ASC_NODE":263.3114,"ARG_OF_PERICENTER":13.0472,"MEAN_ANOMALY":347.069,"EPHEMERIS_TYPE":0,"CLASSIFICATION_TYPE":"U","NORAD_CAT_ID":44782,"ELEMENT_SET_NO":999,"REV_AT_EPOCH":32389,"BSTAR":0.00011688913,"MEAN_MOTION_DOT":5.0e-7,"MEAN_MOTION_DDOT":0},{"OBJECT_NAME":"DELTA 1 DEB","OBJECT_ID":"1978-026S","EPOCH":"2026-03-09T20:52:59.079072","MEAN_MOTION":13.94937275,"ECCENTRICITY":0.01534606,"INCLINATION":98.9359,"RA_OF_ASC_NODE":177.729,"ARG_OF_PERICENTER":74.8669,"MEAN_ANOMALY":52.1771,"EPHEMERIS_TYPE":0,"CLASSIFICATION_TYPE":"U","NORAD_CAT_ID":12177,"ELEMENT_SET_NO":999,"REV_AT_EPOCH":28602,"BSTAR":0.00023206041,"MEAN_MOTION_DOT":3.03e-6,"MEAN_MOTION_DDOT":0}]
